1 99937U          19245.00000000 -.00000688  00000-0 -74340-4 0 00007
2 99937 097.7872 318.3601 0010609 271.6129 088.3852 14.88384890000013
